[{"OBJECT_NAME":"STARLINK-35090","OBJECT_ID":"2025-212Y","EPOCH":"2026-03-09T00:57:31.626432","MEAN_MOTION":15.30164474,"ECCENTRICITY":0.00012375,"INCLINATION":53.1621,"RA_OF_ASC_NODE":348.7163,"ARG_OF_PERICENTER":118.7965,"MEAN_ANOMALY":241.316,"EPHEMERIS_TYPE":0,"CLASSIFICATION_TYPE":"U","NORAD_CAT_ID":65698,"ELEMENT_SET_NO":999,"REV_AT_EPOCH":2714,"BSTAR":0.00051701845,"MEAN_MOTION_DOT":0.00014968,"MEAN_MOTION_DDOT":0},{"OBJECT_NAME":"KUIPER-00177","OBJECT_ID":"2026-030C","EPOCH":"2026-03-09T22:40:13.687104","MEAN_MOTION":15.35467467,"ECCENTRICITY":0.00021592,"INCLINATION":51.8837,"RA_OF_ASC_NODE":217.7875,"ARG_OF_PERICENTER":172.5497,"MEAN_ANOMALY":187.5522,"EPHEMERIS_TYPE":0,"CLASSIFICATION_TYPE":"U","NORAD_CAT_ID":67766,"ELEMENT_SET_NO":999,"REV_AT_EPOCH":513,"BSTAR":-0.015747205,"MEAN_MOTION_DOT":-0.00515419,"MEAN_MOTION_DDOT":0}]
